OPTICUBE 04             
1 41851U 16067D   18293.47778477  .00000495  00000-0  48620-4 0  9995
2 41851  97.9220  23.1880 0010542 105.6763 254.5622 14.96720415105834
AEROCUBE 8D             
1 41852U 16067E   18293.79562724  .00000676  00000-0  64680-4 0  9992
2 41852  97.9227  23.3423 0011199 106.3086 253.9367 14.96569092105866
AEROCUBE 8C             
1 41853U 16067F   18293.81279159  .00000497  00000-0  48977-4 0  9995
2 41853  97.9232  23.3142 0011644 106.1628 254.0875 14.96537918105864
PROMETHEUS 2-1          
1 41854U 16067G   18293.80897054  .00000867  00000-0  81202-4 0  9994
2 41854  97.9238  23.3534 0012013 106.3553 253.8990 14.96679326105861
PROMETHEUS 2-3          
1 41855U 16067H   18293.47743269  .00000809  00000-0  76167-4 0  9996
2 41855  97.9241  23.0253 0012165 107.5212 252.7339 14.96679716105817
ITF-2                   
1 41932U 98067KU  18293.56571538  .00077111  00000-0  26852-3 0  9995
2 41932  51.6286  49.9973 0005210 328.4234  31.6458 15.88655206100604
AOBA-VELOX 3            
1 41935U 98067KX  18293.77431525  .00424359  99467-4  47160-3 0  9996
2 41935  51.6266  36.9341 0009284 341.4360  18.6313 16.08826882100899
INS-1B                  
1 41954U 17008G   18293.20662428  .00001283  00000-0  57021-4 0  9995
2 41954  97.4331 356.0530 0007696 275.2193  84.8165 15.23329860 93037
BGUSAT                  
1 41999U 17008BD  18293.50184386  .00002083  00000-0  86071-4 0  9995
2 41999  97.4382 357.8002 0006778 293.8586  66.1941 15.25108098 92525
DIDO-2                  
1 42000U 17008BE  18293.85839682  .00000943  00000-0  42552-4 0  9992
2 42000  97.4346 357.1866 0007075 295.7581  64.2925 15.23444883 92532
PEASSS                  
1 42015U 17008BV  18293.83385810  .00001141  00000-0  49614-4 0  9992
2 42015  97.4347 357.7751 0005070 306.4750  53.6019 15.24301496 93056
AL-FARABI 1             
1 42016U 17008BW  18293.46140070  .00001512  00000-0  63873-4 0  9994
2 42016  97.4356 357.7027 0004952 308.1842  51.8949 15.24788703 93133
NAYIF-1 (EO-88)         
1 42017U 17008BX  18293.25672384  .00001517  00000-0  64032-4 0  9993
2 42017  97.4356 357.5076 0004953 309.4034  50.6765 15.24814674 93123
HAVELSAT                
1 42700U 98067LH  18293.84529340  .00050289  00000-0  26366-3 0  9991
2 42700  51.6280  68.5241 0003672 349.7592  10.3335 15.80255335 81821
CXBN-2                  
1 42704U 98067LM  18293.65104620  .00049116  00000-0  26474-3 0  9991
2 42704  51.6312  71.0229 0002989 302.8206  57.2508 15.79659079 81696
PHOENIX                 
1 42706U 98067LP  18293.61382585  .00031061  00000-0  20669-3 0  9997
2 42706  51.6320  74.5612 0001864 297.9090  62.1720 15.75128727 81639
X-CUBESAT               
1 42707U 98067LQ  18293.87575075  .00063566  00000-0  30667-3 0  9998
2 42707  51.6297  67.1311 0003308 313.0835  46.9890 15.81967294 81746
QBEE50-LTU-OC           
1 42708U 98067LR  18293.73334668  .00050624  00000-0  27051-3 0  9999
2 42708  51.6297  70.0418 0002034 311.9959  48.0869 15.79840101 81650
ALTAIR PATHFINDER       
1 42711U 98067LS  18293.83841487  .00018039  00000-0  16344-3 0  9993
2 42711  51.6342  85.8841 0003411 292.0750  67.9884 15.68119375 81160
SHARC                   
1 42712U 98067LT  18293.81851776  .00036722  00000-0  29158-3 0  9990
2 42712  51.6346  86.5689 0002565 290.3170  69.7552 15.70882956 81391
ZA-AEROSAT              
1 42713U 98067LU  18293.82025290  .00032187  00000-0  22840-3 0  9998
2 42713  51.6322  77.4340 0002599 290.1416  69.9303 15.73613935 81272
CSUNSAT 1               
1 42715U 98067LW  18293.57701152  .00030374  00000-0  20434-3 0  9993
2 42715  51.6333  77.3249 0003627 289.0431  71.0175 15.74884262 81253
SPACECUBE               
1 42717U 98067LY  18293.83406213  .00051390  00000-0  27617-3 0  9995
2 42717  51.6253  69.8942 0002895 342.3938  17.6963 15.79705918 80742
HOOPOE                  
1 42718U 98067LZ  18293.71482876  .00099744  00000-0  37243-3 0  9993
2 42718  51.6266  63.7774 0004388 325.6921  34.3799 15.87153519 80812
NJUST-1                 
1 42722U 98067MB  18293.84463302  .00028079  00000-0  21305-3 0  9990
2 42722  51.6338  79.8913 0004509 341.4454  18.6379 15.72104537 80316
UNSW-ECO                
1 42723U 98067MC  18293.59077402  .00124561  16843-4  39810-3 0  9994
2 42723  51.6366  63.0708 0006214 330.3035  29.7618 15.90847612 80498
LILACSAT-1              
1 42725U 98067ME  18293.75689509  .00042581  00000-0  25923-3 0  9996
2 42725  51.6377  74.5953 0002622 338.9369 100.0590 15.77003728 80280
NSIGHT-1                
1 42726U 98067MF  18293.85617913  .00011648  00000-0  12647-3 0  9997
2 42726  51.6374  92.8641 0004512 345.3844  14.7020 15.63991394 80059
SNUSAT-1                
1 42727U 98067MG  18293.69465488  .00037959  00000-0  23302-3 0  9991
2 42727  51.6313  75.0152 0005637 311.4840  48.5676 15.76854491 80234
I-INSPIRE II            
1 42731U 98067ML  18293.63805136  .00149788  19622-4  42928-3 0  9991
2 42731  51.6314  60.9961 0007308 314.9954  45.0461 15.92844860 80301
POLYITAN-2-SAU          
1 42732U 98067MM  18293.83979328  .00061086  00000-0  30071-3 0  9995
2 42732  51.6308  68.4570 0005637 303.1903  56.8558 15.81534181 80229
SNUSAT-1B               
1 42733U 98067MN  18293.84096040  .00046763  00000-0  26729-3 0  9998
2 42733  51.6294  72.2604 0005533 304.5043  55.5435 15.78364496 80170
EXALTA-1                
1 42734U 98067MP  18293.80852216  .00196945  26669-4  44816-3 0  9998
2 42734  51.6217  58.2066 0008530 328.5068  31.5429 15.97005463 80304
BEEAGLESAT              
1 42736U 98067MR  18293.67497356  .00033831  00000-0  22114-3 0  9993
2 42736  51.6318  76.4331 0004757 335.1174  24.9595 15.75484079 80168
UCLSAT                  
1 42765U 17036A   18293.12514097  .00001272  00000-0  58409-4 0  9995
2 42765  97.3872 350.8836 0011737   7.0136 353.1262 15.22152335 73710
LITUANICASAT-2          
1 42768U 17036D   18293.60904538  .00001840  00000-0  83772-4 0  9996
2 42768  97.3892 350.9166 0015112 353.1186   6.9840 15.21858581 73634
AALTO-1                 
1 42775U 17036L   18293.70137565  .00000769  00000-0  37793-4 0  9994
2 42775  97.3861 350.7089 0013773 352.1324   7.9694 15.20952624 73577
URSA MAIOR              
1 42776U 17036M   18293.74648333  .00000814  00000-0  39676-4 0  9992
2 42776  97.3868 350.8323 0013608 352.1454   7.9566 15.21049881 73580
COMPASS 2               
1 42777U 17036N   18293.39407076  .00001656  00000-0  75170-4 0  9995
2 42777  97.3895 351.0975 0012551 356.7045   3.4107 15.22129287 73558
DIAMOND RED             
1 42783U 17036U   18293.55255810  .00000976  00000-0  46093-4 0  9993
2 42783  97.3871 351.0832 0012339   5.3142 354.8223 15.21714119 73577
PEGASUS                 
1 42784U 17036V   18293.37594260  .00001124  00000-0  52271-4 0  9990
2 42784  97.3874 351.0238 0012264   5.8089 354.3287 15.21948104 73559
DIAMOND GREEN           
1 42785U 17036W   18293.61706837  .00000935  00000-0  44313-4 0  9990
2 42785  97.3874 351.1634 0012238   5.7379 354.3995 15.21713928 73654
DIAMOND BLUE            
1 42786U 17036X   18293.15589572  .00001042  00000-0  49000-4 0  9993
2 42786  97.3872 350.7103 0012126   7.7767 352.3655 15.21715673 73502
NUDTSAT                 
1 42787U 17036Y   18293.63631050  .00002187  00000-0  96814-4 0  9992
2 42787  97.3890 351.6140 0012708   2.5439 357.5859 15.22656973 73454
SUCHAI                  
1 42788U 17036Z   18293.11203807  .00001418  00000-0  64545-4 0  9993
2 42788  97.3876 350.9204 0011863   6.7136 353.4257 15.22265484 73598
SKCUBE                  
1 42789U 17036AA  18293.18110365  .00001324  00000-0  60587-4 0  9995
2 42789  97.3873 350.9701 0011714   6.6085 353.5304 15.22206370 73521
VZLUSAT-1               
1 42790U 17036AB  18293.36137093  .00001637  00000-0  73235-4 0  9995
2 42790  97.3881 351.3505 0011281   6.1322 354.0050 15.22664653 73567
ROBUSTA-1B              
1 42792U 17036AD  18293.59757554  .00001260  00000-0  57573-4 0  9991
2 42792  97.3872 351.4683 0011270   6.4085 353.7293 15.22364579 73608
CICERO 6                
1 42793U 17036AE  18293.60825053  .00001022  00000-0  47563-4 0  9998
2 42793  97.3861 351.4233 0010552   8.3421 351.7989 15.22128243 73678
D-SAT                   
1 42794U 17036AF  18293.61526636  .00000402  00000-0  40627-4 0  9990
2 42794  97.5770 343.4364 0125848 224.2783 134.8316 14.90948595 72410
TOKI                    
1 42820U 98067MU  18293.44362303  .00031464  00000-0  21692-3 0  9995
2 42820  51.6314  80.9070 0003155 278.2384  81.8257 15.74297863 73564
MAZAALAI (NUMSAT-1)     
1 42822U 98067MW  18293.50593310  .00031249  00000-0  22003-3 0  9996
2 42822  51.6318  81.3362 0003094 281.7354  78.3297 15.73810126 73520
BRAC ONNESHA            
1 42823U 98067MX  18293.61692513  .00030711  00000-0  21410-3 0  9998
2 42823  51.6336  80.6024 0004627 301.5364  58.5183 15.74045630 73562
NIGERIAEDUSAT-1         
1 42824U 98067MY  18293.59950309  .00032072  00000-0  22711-3 0  9993
2 42824  51.6330  81.2605 0004580 299.0569  60.9971 15.73656976 73556
CORVUS BC2              
1 42846U 17042X   18293.56532801  .00000010  00000-0  63355-5 0  9999
2 42846  97.5841 191.8246 0010681 132.3955 227.8170 14.91871645 69069
CORVUS BC1              
1 42847U 17042Y   18293.60175670  .00000360  00000-0  40818-4 0  9998
2 42847  97.5843 191.9278 0010309 131.7461 228.4642 14.91971045 69066
SILU-1 (SILKROAD 1)     
1 42903U 17021F   18293.71723380  .00037111  00000-0  20503-3 0  9999
2 42903  42.7737 284.3496 0012797 112.2165 238.1631 15.78810176 69711
MIRATA                  
1 43015U 17073C   18293.78552608  .00000712  00000-0  61982-4 0  9995
2 43015  97.7077 219.5665 0256048 222.3513 135.7683 14.78437203 49699
MAKERSAT 0              
1 43016U 17073D   18293.77277747  .00000453  00000-0  41455-4 0  9998
2 43016  97.7108 219.7126 0257721 222.4737 135.6279 14.78354759 49680
